NORAD_CAT_ID,OBJECT_NAME,OBJECT_TYPE,EPOCH,MEAN_MOTION,ECCENTRICITY,INCLINATION,RA_OF_ASC_NODE,ARG_OF_PERICENTER,MEAN_ANOMALY,BSTAR,MEAN_MOTION_DOT,MEAN_MOTION_DDOT,TLE_LINE0,TLE_LINE1,TLE_LINE2,SEMIMAJOR_AXIS,PERIOD,APOGEE,PERIGEE,DECAYED
53169.0,STARLINK-4117,PAYLOAD,2023-05-01 12:29:56,15.07198062,0.0001321,53.2173,152.2085,95.885,264.2292,6.207e-06,-1.89e-06,0.0,0 STARLINK-4117,1 53169U 22083AP  23121.52079567 -.00000189  00000-0  62070-5 0  9998,2 53169  53.2173 152.2085 0001321  95.8850 264.2292 15.07198062 44714,6922.904,95.542,545.683,543.854,0.0
53169.0,STARLINK-4117,PAYLOAD,2023-05-02 06:00:18,15.0720834,0.000122,53.2166,148.9433,102.3661,257.7467,2.9372e-05,1.64e-06,0.0,0 STARLINK-4117,1 53169U 22083AP  23122.25021989  .00000164  00000-0  29372-4 0  9993,2 53169  53.2166 148.9433 0001220 102.3661 257.7467 15.07208340 44821,6922.872,95.541,545.582,543.893,0.0
53169.0,STARLINK-4117,PAYLOAD,2023-05-02 10:46:46,15.0720971,0.0001224,53.2166,148.0527,100.9355,259.1774,4.156e-05,3.49e-06,0.0,0 STARLINK-4117,1 53169U 22083AP  23122.44915394  .00000349  00000-0  41560-4 0  9994,2 53169  53.2166 148.0527 0001224 100.9355 259.1774 15.07209710 44216,6922.868,95.541,545.58,543.886,0.0
53169.0,STARLINK-4117,PAYLOAD,2023-05-03 10:39:07,15.0720117,0.0001195,53.2163,143.5995,91.8196,268.2932,1.4733e-05,-5.9e-07,0.0,0 STARLINK-4117,1 53169U 22083AP  23123.44384010 -.00000059  00000-0  14733-4 0  9991,2 53169  53.2163 143.5995 0001195  91.8196 268.2932 15.07201170 45007,6922.894,95.541,545.586,543.932,0.0
53169.0,STARLINK-4117,PAYLOAD,2023-05-04 10:31:27,15.07209996,0.0001197,53.2163,139.1457,89.838,270.2749,1.2739e-05,-8.9e-07,0.0,0 STARLINK-4117,1 53169U 22083AP  23124.43851194 -.00000089  00000-0  12739-4 0  9990,2 53169  53.2163 139.1457 0001197  89.8380 270.2749 15.07209996 45154,6922.867,95.541,545.561,543.903,0.0
53169.0,STARLINK-4117,PAYLOAD,2023-05-05 05:37:19,15.07202001,0.0001143,53.2162,135.5822,87.117,272.9952,1.8103e-05,-8e-08,0.0,0 STARLINK-4117,1 53169U 22083AP  23125.23425876 -.00000008  00000-0  18103-4 0  9995,2 53169  53.2162 135.5822 0001143  87.1170 272.9952 15.07202001 45276,6922.892,95.541,545.548,543.965,0.0
53169.0,STARLINK-4117,PAYLOAD,2023-05-05 10:23:47,15.07204251,0.0001147,53.216,134.6911,87.4529,272.6594,3.5941e-05,2.64e-06,0.0,0 STARLINK-4117,1 53169U 22083AP  23125.43319247  .00000264  00000-0  35941-4 0  9993,2 53169  53.2160 134.6911 0001147  87.4529 272.6594 15.07204251 44668,6922.885,95.541,545.544,543.956,0.0
53169.0,STARLINK-4117,PAYLOAD,2023-05-06 07:05:09,15.07204796,0.0001174,53.2158,130.8308,87.0777,273.0349,-9.8108e-06,-4.33e-06,0.0,0 STARLINK-4117,1 53169U 22083AP  23126.29524928 -.00000433  00000-0 -98108-5 0  9997,2 53169  53.2158 130.8308 0001174  87.0777 273.0349 15.07204796 44795,6922.883,95.541,545.561,543.935,0.0
53169.0,STARLINK-4117,PAYLOAD,2023-05-07 00:35:32,15.07204415,0.0001148,53.2158,127.5644,93.3081,266.8042,1.2027e-05,-1e-06,0.0,0 STARLINK-4117,1 53169U 22083AP  23127.02467987 -.00000100  00000-0  12027-4 0  9995,2 53169  53.2158 127.5644 0001148  93.3081 266.8042 15.07204415 45542,6922.884,95.541,545.544,543.954,0.0
53169.0,STARLINK-4117,PAYLOAD,2023-05-07 06:57:29,15.0720653,0.0001145,53.2157,126.3769,92.8959,267.2164,2.9959e-05,1.73e-06,0.0,0 STARLINK-4117,1 53169U 22083AP  23127.28992568  .00000173  00000-0  29959-4 0  9992,2 53169  53.2157 126.3769 0001145  92.8959 267.2164 15.07206530 44944,6922.878,95.541,545.535,543.95,0.0
53169.0,STARLINK-4117,PAYLOAD,2023-05-08 03:38:52,15.07195851,0.0001148,53.2155,122.5173,94.5023,265.61,-2.4994e-05,-6.64e-06,0.0,0 STARLINK-4117,1 53169U 22083AP  23128.15199134 -.00000664  00000-0 -24994-4 0  9998,2 53169  53.2155 122.5173 0001148  94.5023 265.6100 15.07195851 45714,6922.91,95.542,545.57,543.981,0.0
53169.0,STARLINK-4117,PAYLOAD,2023-05-08 16:22:46,15.0720094,0.0001179,53.2153,120.141,90.5949,269.5178,1.7596e-05,-1.5e-07,0.0,0 STARLINK-4117,1 53169U 22083AP  23128.68248417 -.00000015  00000-0  17596-4 0  9994,2 53169  53.2153 120.1410 0001179  90.5949 269.5178 15.07200940 45159,6922.895,95.541,545.576,543.944,0.0
53169.0,STARLINK-4117,PAYLOAD,2023-05-09 05:06:41,15.07206603,0.0001172,53.2153,117.7653,89.896,270.2165,3.4568e-05,2.43e-06,0.0,0 STARLINK-4117,1 53169U 22083AP  23129.21297577  .00000243  00000-0  34568-4 0  9995,2 53169  53.2153 117.7653 0001172  89.8960 270.2165 15.07206603 45873,6922.878,95.541,545.554,543.931,0.0
53169.0,STARLINK-4117,PAYLOAD,2023-05-09 06:42:10,15.07207604,0.0001188,53.2153,117.4685,89.9603,270.1524,4.2875e-05,3.69e-06,0.0,0 STARLINK-4117,1 53169U 22083AP  23129.27928675  .00000369  00000-0  42875-4 0  9990,2 53169  53.2153 117.4685 0001188  89.9603 270.1524 15.07207604 45248,6922.874,95.541,545.562,543.917,0.0
53169.0,STARLINK-4117,PAYLOAD,2023-05-10 06:34:30,15.07203979,0.000127,53.2159,113.0146,93.3657,266.7479,7.4894e-05,8.57e-06,0.0,0 STARLINK-4117,1 53169U 22083AP  23130.27396745  .00000857  00000-0  74894-4 0  9997,2 53169  53.2159 113.0146 0001270  93.3657 266.7479 15.07203979 45395,6922.886,95.541,545.63,543.871,0.0
53169.0,STARLINK-4117,PAYLOAD,2023-05-10 16:07:26,15.07203232,0.0001249,53.2158,111.2326,92.8146,267.2988,5.2359e-05,5.14e-06,0.0,0 STARLINK-4117,1 53169U 22083AP  23130.67183993  .00000514  00000-0  52359-4 0  9992,2 53169  53.2158 111.2326 0001249  92.8146 267.2988 15.07203232 45457,6922.888,95.541,545.618,543.888,0.0
53169.0,STARLINK-4117,PAYLOAD,2023-05-11 04:51:21,15.07210141,0.0001278,53.2158,108.8573,92.5971,267.5166,3.7746e-05,2.91e-06,0.0,0 STARLINK-4117,1 53169U 22083AP  23131.20233046  .00000291  00000-0  37746-4 0  9992,2 53169  53.2158 108.8573 0001278  92.5971 267.5166 15.07210141 45535,6922.867,95.541,545.616,543.847,0.0
53169.0,STARLINK-4117,PAYLOAD,2023-05-11 15:59:47,15.07201411,0.0001234,53.2157,106.7778,94.1213,265.992,-3.6788e-05,-8.43e-06,0.0,0 STARLINK-4117,1 53169U 22083AP  23131.66652078 -.00000843  00000-0 -36788-4 0  9992,2 53169  53.2157 106.7778 0001234  94.1213 265.9920 15.07201411 46246,6922.893,95.541,545.613,543.904,0.0
53169.0,STARLINK-4117,PAYLOAD,2023-05-12 04:43:42,15.07193318,0.0001161,53.2161,104.4026,93.5245,266.5879,-4.9933e-05,-1.043e-05,0.0,0 STARLINK-4117,1 53169U 22083AP  23132.19702353 -.00001043  00000-0 -49933-4 0  9992,2 53169  53.2161 104.4026 0001161  93.5245 266.5879 15.07193318 46324,6922.918,95.542,545.587,543.979,0.0
53169.0,STARLINK-4117,PAYLOAD,2023-05-13 04:35:44,15.07419986,0.0001158,53.2169,99.9493,80.3606,279.7517,0.0017729,0.00026965,0.0,0 STARLINK-4117,1 53169U 22083AP  23133.19148226  .00026965  00000-0  17729-2 0  9990,2 53169  53.2169  99.9493 0001158  80.3606 279.7517 15.07419986 46472,6922.224,95.527,544.891,543.288,0.0
53169.0,STARLINK-4117,PAYLOAD,2023-05-13 12:32:51,15.07610239,0.000197,53.2169,98.4589,157.2628,202.8451,0.0033049,0.00050947,0.0,0 STARLINK-4117,1 53169U 22083AP  23133.52281588  .00050947  00000-0  33049-2 0  9996,2 53169  53.2169  98.4589 0001970 157.2628 202.8451 15.07610239 46526,6921.642,95.515,544.87,542.143,0.0
53169.0,STARLINK-4117,PAYLOAD,2023-05-13 20:30:01,15.07725605,0.0001396,53.218,96.976,87.7634,272.3517,0.0040377,0.00062606,0.0,0 STARLINK-4117,1 53169U 22083AP  23133.85418928  .00062606  00000-0  40377-2 0  9999,2 53169  53.2180  96.9760 0001396  87.7634 272.3517 15.07725605 45932,6921.289,95.508,544.12,542.188,0.0
53169.0,STARLINK-4117,PAYLOAD,2023-05-14 04:26:58,15.07985918,0.000136,53.2175,95.4909,73.4711,286.643,0.0057518,0.00090293,0.0,0 STARLINK-4117,1 53169U 22083AP  23134.18539854  .00090293  00000-0  57518-2 0  9996,2 53169  53.2175  95.4909 0001360  73.4711 286.6430 15.07985918 46628,6920.492,95.492,543.298,541.416,0.0
53169.0,STARLINK-4117,PAYLOAD,2023-05-14 10:48:31,15.08154012,0.0001238,53.2175,94.3016,83.0679,277.0453,0.0067194,0.00106256,0.0,0 STARLINK-4117,1 53169U 22083AP  23134.45036837  .00106256  00000-0  67194-2 0  9997,2 53169  53.2175  94.3016 0001238  83.0679 277.0453 15.08154012 46666,6919.978,95.481,542.7,540.986,0.0
53169.0,STARLINK-4117,PAYLOAD,2023-05-14 12:23:57,15.08166426,0.0001317,53.2175,94.0038,63.9716,296.1411,0.0066782,0.00105629,0.0,0 STARLINK-4117,1 53169U 22083AP  23134.51663374  .00105629  00000-0  66782-2 0  9991,2 53169  53.2175  94.0038 0001317  63.9716 296.1411 15.08166426 46033,6919.94,95.48,542.716,540.894,0.0
53169.0,STARLINK-4117,PAYLOAD,2023-05-14 22:00:00,15.08831071,0.000121,53.2161,92.2098,87.2418,285.4241,0.00016905,2.403e-05,0.0,0 STARLINK-4117,1 53169U 22083AP  23134.91667824  .00002403  00000-0  16905-3 0  9998,2 53169  53.2161  92.2098 0001210  87.2418 285.4241 15.08831071  1302,6917.908,95.438,540.61,538.936,0.0
53169.0,STARLINK-4117,PAYLOAD,2023-05-15 06:00:00,15.0880782,0.0001134,53.2159,90.7151,76.7859,307.46,0.0020409,0.00032314,0.0,0 STARLINK-4117,1 53169U 22083AP  23135.25001157  .00032314  00000-0  20409-2 0  9994,2 53169  53.2159  90.7151 0001134  76.7859 307.4600 15.08807820 46789,6917.979,95.44,540.628,539.059,0.0
53169.0,STARLINK-4117,PAYLOAD,2023-05-15 14:00:01,15.08843004,0.000106,53.2156,89.2172,84.5538,311.2689,-0.00049586,-8.171e-05,0.0,0 STARLINK-4117,1 53169U 22083AP  23135.58334491 -.00008171  00000-0 -49586-3 0  9994,2 53169  53.2156  89.2172 0001060  84.5538 311.2689 15.08843004  1304,6917.871,95.437,540.47,539.003,0.0
53169.0,STARLINK-4117,PAYLOAD,2023-05-15 22:00:00,15.08856646,0.0001115,53.2158,87.7206,91.845,315.5649,1.5381e-05,-4.3e-07,0.0,0 STARLINK-4117,1 53169U 22083AP  23135.91667824 -.00000043  00000-0  15381-4 0  9996,2 53169  53.2158  87.7206 0001115  91.8450 315.5649 15.08856646  1301,6917.83,95.437,540.466,538.923,0.0
53169.0,STARLINK-4117,PAYLOAD,2023-05-16 06:00:00,15.08831063,0.0001187,53.2157,86.2258,81.0163,338.0104,0.0004005,6.09e-05,0.0,0 STARLINK-4117,1 53169U 22083AP  23136.25001157  .00006090  00000-0  40050-3 0  9992,2 53169  53.2157  86.2258 0001187  81.0163 338.0104 15.08831063 46932,6917.908,95.438,540.594,538.952,0.0
